{
  "type": "FeatureCollection",
  "features": [
    {
      "type": "Feature",
      "properties": {
        "norad_id": 66425,
        "name": "STARLINK-35555",
        "group": "last-30-days",
        "lat": -17.206474632735304,
        "lon": -81.80351719180535,
        "alt_km": 445.4411093973358,
        "timestamp": "2025-12-07T09:35:08.569354+00:00",
        "meta_object_name": "STARLINK-35555",
        "meta_object_id": "2025-259D",
        "meta_epoch": "2025-12-07T00:00:02.000160",
        "meta_mean_motion": 15.4074847,
        "meta_eccentricity": 0.00018259,
        "meta_inclination": 43.001,
        "meta_ra_of_asc_node": 81.0894,
        "meta_arg_of_pericenter": 272.4877,
        "meta_mean_anomaly": 235.3568,
        "meta_ephemeris_type": 0,
        "meta_classification_type": "U",
        "meta_norad_cat_id": 66425,
        "meta_element_set_no": 999,
        "meta_rev_at_epoch": 535,
        "meta_bstar": -0.0028639977,
        "meta_mean_motion_dot": -0.00118299,
        "meta_mean_motion_ddot": 0,
        "tle_line1": "1 66425U 25259D   25341.00002315 -.00118299  00000+0 -28640-2 0  9995",
        "tle_line2": "2 66425  43.0010  81.0894 0001825 272.4877 235.3568 15.40748470  5351"
      },
      "geometry": {
        "type": "Point",
        "coordinates": [
          -81.80351719180535,
          -17.206474632735304
        ]
      }
    },
    {
      "type": "Feature",
      "properties": {
        "norad_id": 66426,
        "name": "STARLINK-35589",
        "group": "last-30-days",
        "lat": -24.883734463363506,
        "lon": -71.39062804653777,
        "alt_km": 446.002846395334,
        "timestamp": "2025-12-07T09:35:08.569364+00:00",
        "meta_object_name": "STARLINK-35589",
        "meta_object_id": "2025-259E",
        "meta_epoch": "2025-12-07T00:00:02.000160",
        "meta_mean_motion": 15.40670238,
        "meta_eccentricity": 0.00015079,
        "meta_inclination": 43.0008,
        "meta_ra_of_asc_node": 81.0603,
        "meta_arg_of_pericenter": 280.9929,
        "meta_mean_anomaly": 239.284,
        "meta_ephemeris_type": 0,
        "meta_classification_type": "U",
        "meta_norad_cat_id": 66426,
        "meta_element_set_no": 999,
        "meta_rev_at_epoch": 535,
        "meta_bstar": 0.00054813621,
        "meta_mean_motion_dot": 0.00022639,
        "meta_mean_motion_ddot": 0,
        "tle_line1": "1 66426U 25259E   25341.00002315  .00022639  00000+0  54814-3 0  9999",
        "tle_line2": "2 66426  43.0008  81.0603 0001507 280.9929 239.2840 15.40670238  5358"
      },
      "geometry": {
        "type": "Point",
        "coordinates": [
          -71.39062804653777,
          -24.883734463363506
        ]
      }
    },
    {
      "type": "Feature",
      "properties": {
        "norad_id": 66427,
        "name": "STARLINK-35611",
        "group": "last-30-days",
        "lat": -31.717502560969113,
        "lon": -59.72712332178681,
        "alt_km": 446.4414531349448,
        "timestamp": "2025-12-07T09:35:08.569374+00:00",
        "meta_object_name": "STARLINK-35611",
        "meta_object_id": "2025-259F",
        "meta_epoch": "2025-12-07T00:00:02.000160",
        "meta_mean_motion": 15.40683852,
        "meta_eccentricity": 0.00021469,
        "meta_inclination": 43.0009,
        "meta_ra_of_asc_node": 81.0297,
        "meta_arg_of_pericenter": 304.2938,
        "meta_mean_anomaly": 228.3124,
        "meta_ephemeris_type": 0,
        "meta_classification_type": "U",
        "meta_norad_cat_id": 66427,
        "meta_element_set_no": 999,
        "meta_rev_at_epoch": 535,
        "meta_bstar": 0.0012556228,
        "meta_mean_motion_dot": 0.00052482,
        "meta_mean_motion_ddot": 0,
        "tle_line1": "1 66427U 25259F   25341.00002315  .00052482  00000+0  12556-2 0  9995",
        "tle_line2": "2 66427  43.0009  81.0297 0002146 304.2938 228.3124 15.40683852  5359"
      },
      "geometry": {
        "type": "Point",
        "coordinates": [
          -59.72712332178681,
          -31.717502560969113
        ]
      }
    },
    {
      "type": "Feature",
      "properties": {
        "norad_id": 66428,
        "name": "STARLINK-35610",
        "group": "last-30-days",
        "lat": -37.3837307040622,
        "lon": -46.22255918549276,
        "alt_km": 446.0046960226455,
        "timestamp": "2025-12-07T09:35:08.569385+00:00",
        "meta_object_name": "STARLINK-35610",
        "meta_object_id": "2025-259G",
        "meta_epoch": "2025-12-07T00:00:02.000160",
        "meta_mean_motion": 15.40656273,
        "meta_eccentricity": 0.00019589,
        "meta_inclination": 43.0012,
        "meta_ra_of_asc_node": 80.9993,
        "meta_arg_of_pericenter": 266.6834,
        "meta_mean_anomaly": 278.4577,
        "meta_ephemeris_type": 0,
        "meta_classification_type": "U",
        "meta_norad_cat_id": 66428,
        "meta_element_set_no": 999,
        "meta_rev_at_epoch": 535,
        "meta_bstar": 0.0010442208,
        "meta_mean_motion_dot": 0.00043502,
        "meta_mean_motion_ddot": 0,
        "tle_line1": "1 66428U 25259G   25341.00002315  .00043502  00000+0  10442-2 0  9991",
        "tle_line2": "2 66428  43.0012  80.9993 0001958 266.6834 278.4577 15.40656273  5356"
      },
      "geometry": {
        "type": "Point",
        "coordinates": [
          -46.22255918549276,
          -37.3837307040622
        ]
      }
    },
    {
      "type": "Feature",
      "properties": {
        "norad_id": 66429,
        "name": "STARLINK-35533",
        "group": "last-30-days",
        "lat": -41.28551023662976,
        "lon": -30.90289793400014,
        "alt_km": 446.5461887911206,
        "timestamp": "2025-12-07T09:35:08.569395+00:00",
        "meta_object_name": "STARLINK-35533",
        "meta_object_id": "2025-259H",
        "meta_epoch": "2025-12-07T00:00:02.000160",
        "meta_mean_motion": 15.40819305,
        "meta_eccentricity": 0.00016575,
        "meta_inclination": 43.0013,
        "meta_ra_of_asc_node": 80.9673,
        "meta_arg_of_pericenter": 280.0087,
        "meta_mean_anomaly": 277.5606,
        "meta_ephemeris_type": 0,
        "meta_classification_type": "U",
        "meta_norad_cat_id": 66429,
        "meta_element_set_no": 999,
        "meta_rev_at_epoch": 535,
        "meta_bstar": -0.0059154779,
        "meta_mean_motion_dot": -0.00240737,
        "meta_mean_motion_ddot": 0,
        "tle_line1": "1 66429U 25259H   25341.00002315 -.00240737  00000+0 -59155-2 0  9997",
        "tle_line2": "2 66429  43.0013  80.9673 0001657 280.0087 277.5606 15.40819305  5359"
      },
      "geometry": {
        "type": "Point",
        "coordinates": [
          -30.90289793400014,
          -41.28551023662976
        ]
      }
    },
    {
      "type": "Feature",
      "properties": {
        "norad_id": 66430,
        "name": "STARLINK-35470",
        "group": "last-30-days",
        "lat": -42.944423243378864,
        "lon": -14.25081290929817,
        "alt_km": 446.59333205439816,
        "timestamp": "2025-12-07T09:35:08.569406+00:00",
        "meta_object_name": "STARLINK-35470",
        "meta_object_id": "2025-259J",
        "meta_epoch": "2025-12-07T00:00:02.000160",
        "meta_mean_motion": 15.42668767,
        "meta_eccentricity": 0.00011636,
        "meta_inclination": 43.001,
        "meta_ra_of_asc_node": 80.942,
        "meta_arg_of_pericenter": 278.8341,
        "meta_mean_anomaly": 289.9103,
        "meta_ephemeris_type": 0,
        "meta_classification_type": "U",
        "meta_norad_cat_id": 66430,
        "meta_element_set_no": 999,
        "meta_rev_at_epoch": 535,
        "meta_bstar": -0.060071655,
        "meta_mean_motion_dot": -0.02384104,
        "meta_mean_motion_ddot": 0,
        "tle_line1": "1 66430U 25259J   25341.00002315 -.02384104  00000+0 -60072-1 0  9997",
        "tle_line2": "2 66430  43.0010  80.9420 0001163 278.8341 289.9103 15.42668767  5353"
      },
      "geometry": {
        "type": "Point",
        "coordinates": [
          -14.25081290929817,
          -42.944423243378864
        ]
      }
    },
    {
      "type": "Feature",
      "properties": {
        "norad_id": 66431,
        "name": "STARLINK-35439",
        "group": "last-30-days",
        "lat": -42.23361056979578,
        "lon": 1.6607980972349325,
        "alt_km": 442.47705339732784,
        "timestamp": "2025-12-07T09:35:08.569418+00:00",
        "meta_object_name": "STARLINK-35439",
        "meta_object_id": "2025-259K",
        "meta_epoch": "2025-12-07T00:00:02.000160",
        "meta_mean_motion": 15.43835574,
        "meta_eccentricity": 0.00010012,
        "meta_inclination": 43.0014,
        "meta_ra_of_asc_node": 80.9159,
        "meta_arg_of_pericenter": 263.1584,
        "meta_mean_anomaly": 315.4532,
        "meta_ephemeris_type": 0,
        "meta_classification_type": "U",
        "meta_norad_cat_id": 66431,
        "meta_element_set_no": 999,
        "meta_rev_at_epoch": 535,
        "meta_bstar": -0.049852555,
        "meta_mean_motion_dot": -0.02055157,
        "meta_mean_motion_ddot": 0,
        "tle_line1": "1 66431U 25259K   25341.00002315 -.02055157  00000+0 -49853-1 0  9995",
        "tle_line2": "2 66431  43.0014  80.9159 0001001 263.1584 315.4532 15.43835574  5358"
      },
      "geometry": {
        "type": "Point",
        "coordinates": [
          1.6607980972349325,
          -42.23361056979578
        ]
      }
    }
  ]
}